[{"OBJECT_NAME":"ONEWEB-0392","OBJECT_ID":"2021-132D","EPOCH":"2026-03-09T21:47:28.416192","MEAN_MOTION":13.17649523,"ECCENTRICITY":0.0001764,"INCLINATION":87.9163,"RA_OF_ASC_NODE":25.5532,"ARG_OF_PERICENTER":69.0087,"MEAN_ANOMALY":291.1233,"EPHEMERIS_TYPE":0,"CLASSIFICATION_TYPE":"U","NORAD_CAT_ID":50472,"ELEMENT_SET_NO":999,"REV_AT_EPOCH":20504,"BSTAR":0.00039112641,"MEAN_MOTION_DOT":1.65e-6,"MEAN_MOTION_DDOT":0},{"OBJECT_NAME":"SL-14 DEB","OBJECT_ID":"1991-056CZ","EPOCH":"2026-03-08T22:20:38.504544","MEAN_MOTION":12.99800818,"ECCENTRICITY":0.01070198,"INCLINATION":82.5347,"RA_OF_ASC_NODE":256.9477,"ARG_OF_PERICENTER":318.1704,"MEAN_ANOMALY":41.1264,"EPHEMERIS_TYPE":0,"CLASSIFICATION_TYPE":"U","NORAD_CAT_ID":45655,"ELEMENT_SET_NO":999,"REV_AT_EPOCH":28781,"BSTAR":0.00022514106,"MEAN_MOTION_DOT":8.0e-7,"MEAN_MOTION_DDOT":0}]
